[{"OBJECT_NAME":"STARLINK-30069","OBJECT_ID":"2023-079M","EPOCH":"2026-03-08T11:34:15.947328","MEAN_MOTION":15.26726881,"ECCENTRICITY":4.69e-5,"INCLINATION":42.9986,"RA_OF_ASC_NODE":110.4464,"ARG_OF_PERICENTER":272.6695,"MEAN_ANOMALY":87.4103,"EPHEMERIS_TYPE":0,"CLASSIFICATION_TYPE":"U","NORAD_CAT_ID":56834,"ELEMENT_SET_NO":999,"REV_AT_EPOCH":15274,"BSTAR":-8.0472e-5,"MEAN_MOTION_DOT":-2.416e-5,"MEAN_MOTION_DDOT":0},{"OBJECT_NAME":"STARLINK-32303","OBJECT_ID":"2024-207A","EPOCH":"2026-03-09T22:59:18.443040","MEAN_MOTION":15.2760047,"ECCENTRICITY":3.743e-5,"INCLINATION":42.9966,"RA_OF_ASC_NODE":280.1797,"ARG_OF_PERICENTER":233.7502,"MEAN_ANOMALY":126.3315,"EPHEMERIS_TYPE":0,"CLASSIFICATION_TYPE":"U","NORAD_CAT_ID":61912,"ELEMENT_SET_NO":999,"REV_AT_EPOCH":7535,"BSTAR":0.0014940722,"MEAN_MOTION_DOT":0.00041107,"MEAN_MOTION_DDOT":0}]
